satname,norad_id,inclination_deg,eccentricity,mean_motion_rev_per_day,perigee_km,apogee_km,l1,l2
STARLINK-1470,45772,53.0516,0.0007504,15.21206728,497.0365580529351,507.36256716610023,1 45772U 20038AU  25354.81273594  .00006430  00000+0  29874-3 0  9991,2 45772  53.0516 178.5218 0007504 102.5182 257.6653 15.21206728305044
STARLINK-1482,45773,53.0538,0.0001574,15.06402127,546.114990160354,548.2950878342299,1 45773U 20038AV  25354.83229824  .00001698  00000+0  13284-3 0  9990,2 45773  53.0538 190.6200 0001574  92.3639 267.7530 15.06402127304879
STARLINK-1496,45780,53.0536,1.54e-05,15.16832665,515.3141877909875,515.5265093573244,1 45780U 20038BC  25354.91668980  .00098540  00000+0  48989-2 0  9998,2 45780  53.0536 190.0812 0000154 280.3765  81.2263 15.16832665  5842
STARLINK-1497,45781,53.032,0.0001078,15.70480665,356.7961999997824,358.24840814574145,1 45781U 20038BD  25354.91668980  .00161390  00000+0  12698-2 0  9991,2 45781  53.0320 115.5934 0001078  53.7716 280.4173 15.70480665  6006
STARLINK-1510,45784,53.022,0.0006799,15.97934231,275.62400064099074,284.67794062345547,1 45784U 20038BG  25354.91668980  .00396757  76258-4  85338-3 0  9996,2 45784  53.0220  84.2653 0006799 335.5677 295.6118 15.97934231  6065
STARLINK-1513,45786,53.054,0.0001555,15.06414001,546.0917621940043,548.2455322502901,1 45786U 20038BJ  25353.83339423  .00001566  00000+0  12393-3 0  9994,2 45786  53.0540 195.1069 0001555  98.5851 261.5315 15.06414001304723
STARLINK-1522,46027,53.0548,0.0001299,15.06401197,546.3082870069857,548.1074916092275,1 46027U 20055A   25353.34962933 -.00000316  00000+0 -23138-5 0  9991,2 46027  53.0548 127.2767 0001299  96.4553 263.6584 15.06401197296770
STARLINK-1523,46028,53.0542,9.98e-05,15.06399703,546.5213183237247,547.9036180775774,1 46028U 20055B   25354.09418868 -.00000030  00000+0  16868-4 0  9991,2 46028  53.0542 123.9387 0000998  91.8683 268.2420 15.06399703296908
STARLINK-1526,46029,53.0541,0.0001156,15.06393483,546.4309590744042,548.0321042789283,1 46029U 20055C   25354.61759367  .00000483  00000+0  51329-4 0  9994,2 46029  53.0541 121.5833 0001156  91.3746 268.7375 15.06393483296970
STARLINK-1555,46032,53.0562,0.0001342,15.06386292,546.3241838878903,548.1829587172278,1 46032U 20055F   25354.66920759 -.00000504  00000+0 -14930-4 0  9991,2 46032  53.0562 121.3544 0001342  95.8183 264.2959 15.06386292296985
STARLINK-1556,46033,53.0551,0.0001066,15.0638656,546.5145033614826,547.9909964561639,1 46033U 20055G   25354.65077318 -.00001059  00000+0 -52267-4 0  9996,2 46033  53.0551 121.4369 0001066  87.2707 272.8404 15.06386560296955
STARLINK-1557,46034,53.057,0.000147,15.06388718,546.228104538206,548.2641671801475,1 46034U 20055H   25354.65445541 -.00000744  00000+0 -31087-4 0  9991,2 46034  53.0570 121.4195 0001470  90.1012 270.0145 15.06388718296954
STARLINK-1558,46035,53.0546,0.0001072,15.06390366,546.4986843873885,547.9834854487945,1 46035U 20055J   25354.66182734  .00000377  00000+0  44218-4 0  9995,2 46035  53.0546 121.3895 0001072  82.6035 277.5076 15.06390366296983
STARLINK-1560,46036,53.0551,0.0001273,15.06399417,546.3317476509992,548.0949418487726,1 46036U 20055K   25354.77977757 -.00001152  00000+0 -58475-4 0  9999,2 46036  53.0551 120.8609 0001273  85.4189 274.6945 15.06399417297004
STARLINK-1567,46038,53.0549,0.0001414,15.06400879,546.2296200260262,548.1881078363458,1 46038U 20055M   25354.72448476 -.00001528  00000+0 -83684-4 0  9994,2 46038  53.0549 121.1071 0001414  77.9125 282.2022 15.06400879296985
STARLINK-1569,46039,53.0565,0.0001465,15.0638622,546.2392222245198,548.2683617265702,1 46039U 20055N   25354.66551426 -.00000999  00000+0 -48226-4 0  9992,2 46039  53.0565 121.3699 0001465  82.0555 278.0600 15.06386220296979
STARLINK-1582,46043,53.056,0.0001289,15.06398312,546.3240533240114,548.1094095159715,1 46043U 20055S   25354.67288639 -.00001390  00000+0 -74436-4 0  9999,2 46043  53.0560 121.3386 0001289  78.9003 281.2131 15.06398312296978
STARLINK-1591,46045,53.0557,0.0001486,15.06395242,546.1970315986955,548.2552495240707,1 46045U 20055U   25354.10156149 -.00000428  00000+0 -98098-5 0  9991,2 46045  53.0557 123.9037 0001486  83.3917 276.7241 15.06395242296879
STARLINK-1524,46047,53.0548,0.0001293,15.06392015,546.3405801884319,548.1314816542281,1 46047U 20055W   25354.58534270 -.00001044  00000+0 -51198-4 0  9994,2 46047  53.0548 111.7312 0001293  81.6314 278.4822 15.06392015297106
STARLINK-1527,46048,53.0552,0.0001404,15.06398309,546.2444209493951,548.1890602797594,1 46048U 20055X   25354.58164785  .00000962  00000+0  83442-4 0  9998,2 46048  53.0552 111.7482 0001404  89.8844 270.2306 15.06398309297088
STARLINK-1540,46051,53.0546,0.0001199,15.06390116,546.4114982161063,548.0722040646097,1 46051U 20055AA  25354.34944117 -.00000011  00000+0  18157-4 0  9998,2 46051  53.0546 112.7904 0001199  91.6519 268.4607 15.06390116297087
STARLINK-1541,46052,53.0558,0.0001098,15.06383401,546.5020230921054,548.0228408073608,1 46052U 20055AB  25354.40104730 -.00000238  00000+0  28805-5 0  9998,2 46052  53.0558 112.5577 0001098  85.8730 274.2385 15.06383401297057
STARLINK-1543,46053,53.057,0.0001334,15.06389107,546.3210976643004,548.1687895668565,1 46053U 20055AC  25354.60377213 -.00000019  00000+0  17618-4 0  9995,2 46053  53.0570 111.6481 0001334  86.5917 273.5224 15.06389107297114
STARLINK-1548,46054,53.0559,0.0001177,15.06390458,546.425685980942,548.0559199157569,1 46054U 20055AD  25354.54479412  .00000481  00000+0  51216-4 0  9997,2 46054  53.0559 111.9135 0001177  81.1007 279.0115 15.06390458297107
STARLINK-1554,46055,53.0549,0.0001565,15.06392345,546.1511987890544,548.3188402311607,1 46055U 20055AE  25354.59640536 -.00000485  00000+0 -13655-4 0  9991,2 46055  53.0549 111.6810 0001565  89.2631 270.8537 15.06392345297112
STARLINK-1564,46058,53.0562,0.0001367,15.06401974,546.2588135983597,548.1522022400259,1 46058U 20055AH  25353.61230492 -.00000268  00000+0  89800-6 0  9997,2 46058  53.0562 116.5609 0001367  84.9148 275.1997 15.06401974296953
STARLINK-1570,46059,53.0557,0.0001051,15.06398206,546.4892015840342,547.944911006668,1 46059U 20055AJ  25354.63693779  .00000351  00000+0  42424-4 0  9993,2 46059  53.0557 111.5027 0001051  87.5784 272.5325 15.06398206297075
STARLINK-1572,46060,53.0559,0.0001153,15.0639157,546.4388991269034,548.0358904623436,1 46060U 20055AK  25354.63326225  .00000122  00000+0  27109-4 0  9993,2 46060  53.0559 111.5153 0001153  84.0040 276.1081 15.06391570297086
